start=new Date('2022-08-05T00:00:00.000Z').valueOf();
sats=[{"RCS_SIZE":"LARGE","GP_ID":"209588239","OBJECT_TYPE":"PAYLOAD","BSTAR":"0.00000354530000","CLASSIFICATION_TYPE":"U","INCLINATION":"53.0549","REF_FRAME":"TEME","OBJECT_ID":"2021-012X","ARG_OF_PERICENTER":"78.0739","MEAN_MOTION":"15.06387756","SEMIMAJOR_AXIS":"6925.386","TIME_SYSTEM":"UTC","MEAN_ANOMALY":"282.0417","EPOCH":"2022-08-04T17:41:54.567168","MEAN_MOTION_DDOT":"0.0000000000000","MEAN_ELEMENT_THEORY":"SGP4","TLE_LINE2":"2 47641  53.0549 110.7032 0001487  78.0739 282.0417 15.06387756 83405","ECCENTRICITY":"0.00014870","LAUNCH_DATE":"2021-02-16","SITE":"AFETR","NORAD_CAT_ID":"47641","APOAPSIS":"548.281","DECAY_DATE":null,"MEAN_MOTION_DOT":"-0.00000229","CENTER_NAME":"EARTH","EPHEMERIS_TYPE":"0","ELEMENT_SET_NO":"999","PERIOD":"95.593","FILE":"3529274","TLE_LINE1":"1 47641U 21012X   22216.73743712 -.00000229  00000-0  35453-5 0  9994","PERIAPSIS":"546.221","REV_AT_EPOCH":"8340","COUNTRY_CODE":"US","OBJECT_NAME":"STARLINK-2019","RA_OF_ASC_NODE":"110.7032"},{"MEAN_MOTION":"15.06398117","ARG_OF_PERICENTER":"80.7597","EPOCH":"2022-08-04T22:21:53.449632","MEAN_ANOMALY":"279.3560","SEMIMAJOR_AXIS":"6925.354","TIME_SYSTEM":"UTC","RCS_SIZE":"LARGE","GP_ID":"209588989","REF_FRAME":"TEME","OBJECT_ID":"2021-012Y","CLASSIFICATION_TYPE":"U","INCLINATION":"53.0538","OBJECT_TYPE":"PAYLOAD","BSTAR":"-0.00004065400000","FILE":"3529274","TLE_LINE1":"1 47642U 21012Y   22216.93186863 -.00000887  00000-0 -40654-4 0  9994","PERIOD":"95.592","ELEMENT_SET_NO":"999","RA_OF_ASC_NODE":"199.8057","OBJECT_NAME":"STARLINK-2020","PERIAPSIS":"546.194","COUNTRY_CODE":"US","REV_AT_EPOCH":"8218","LAUNCH_DATE":"2021-02-16","ECCENTRICITY":"0.00014810","SITE":"AFETR","MEAN_ELEMENT_THEORY":"SGP4","TLE_LINE2":"2 47642  53.0538 199.8057 0001481  80.7597 279.3560 15.06398117 82180","MEAN_MOTION_DDOT":"0.0000000000000","CENTER_NAME":"EARTH","EPHEMERIS_TYPE":"0","APOAPSIS":"548.245","DECAY_DATE":null,"MEAN_MOTION_DOT":"-0.00000887","NORAD_CAT_ID":"47642"},{"TLE_LINE1":"1 47643U 21012Z   22216.87980625 -.00000545  00000-0 -17703-4 0  9996","FILE":"3529274","PERIOD":"95.592","ELEMENT_SET_NO":"999","RA_OF_ASC_NODE":"185.0628","OBJECT_NAME":"STARLINK-2022","REV_AT_EPOCH":"8239","COUNTRY_CODE":"US","PERIAPSIS":"545.896","SITE":"AFETR","ECCENTRICITY":"0.00019140","LAUNCH_DATE":"2021-02-16","TLE_LINE2":"2 47643  53.0543 185.0628 0001914  67.0216 293.0975 15.06397463 82394","MEAN_ELEMENT_THEORY":"SGP4","MEAN_MOTION_DDOT":"0.0000000000000","EPHEMERIS_TYPE":"0","CENTER_NAME":"EARTH","MEAN_MOTION_DOT":"-0.00000545","DECAY_DATE":null,"APOAPSIS":"548.547","NORAD_CAT_ID":"47643","MEAN_MOTION":"15.06397463","ARG_OF_PERICENTER":"67.0216","EPOCH":"2022-08-04T21:06:55.260000","MEAN_ANOMALY":"293.0975","SEMIMAJOR_AXIS":"6925.356","TIME_SYSTEM":"UTC","GP_ID":"209589241","RCS_SIZE":"LARGE","REF_FRAME":"TEME","OBJECT_ID":"2021-012Z","CLASSIFICATION_TYPE":"U","INCLINATION":"53.0543","BSTAR":"-0.00001770300000","OBJECT_TYPE":"PAYLOAD"},{"TIME_SYSTEM":"UTC","SEMIMAJOR_AXIS":"6925.356","EPOCH":"2022-08-04T08:41:10.869504","MEAN_ANOMALY":"291.9800","ARG_OF_PERICENTER":"68.1359","MEAN_MOTION":"15.06397549","OBJECT_TYPE":"PAYLOAD","BSTAR":"0.00009187800000","CLASSIFICATION_TYPE":"U","INCLINATION":"53.0540","OBJECT_ID":"2021-012AA","REF_FRAME":"TEME","RCS_SIZE":"LARGE","GP_ID":"209559287","PERIAPSIS":"546.114","COUNTRY_CODE":"US","REV_AT_EPOCH":"8204","OBJECT_NAME":"STARLINK-2026","RA_OF_ASC_NODE":"207.3834","ELEMENT_SET_NO":"999","PERIOD":"95.592","FILE":"3529060","TLE_LINE1":"1 47644U 21012AA  22216.36193136  .00001087  00000-0  91878-4 0  9999","NORAD_CAT_ID":"47644","APOAPSIS":"548.328","DECAY_DATE":null,"MEAN_MOTION_DOT":"0.00001087","CENTER_NAME":"EARTH","EPHEMERIS_TYPE":"0","MEAN_MOTION_DDOT":"0.0000000000000","MEAN_ELEMENT_THEORY":"SGP4","TLE_LINE2":"2 47644  53.0540 207.3834 0001598  68.1359 291.9800 15.06397549 82048","LAUNCH_DATE":"2021-02-16","ECCENTRICITY":"0.00015980","SITE":"AFETR"},{"RA_OF_ASC_NODE":"177.8210","OBJECT_NAME":"STARLINK-2027","PERIAPSIS":"546.007","COUNTRY_CODE":"US","REV_AT_EPOCH":"8242","FILE":"3529060","TLE_LINE1":"1 47645U 21012AB  22216.31680624 -.00000301  00000-0 -12943-5 0  9995","PERIOD":"95.592","ELEMENT_SET_NO":"999","CENTER_NAME":"EARTH","EPHEMERIS_TYPE":"0","DECAY_DATE":null,"APOAPSIS":"548.452","MEAN_MOTION_DOT":"-0.00000301","NORAD_CAT_ID":"47645","LAUNCH_DATE":"2021-02-16","ECCENTRICITY":"0.00017650","SITE":"AFETR","MEAN_ELEMENT_THEORY":"SGP4","TLE_LINE2":"2 47645  53.0553 177.8210 0001765  71.3400 288.7780 15.06394875 82423","MEAN_MOTION_DDOT":"0.0000000000000","MEAN_ANOMALY":"288.7780","EPOCH":"2022-08-04T07:36:12.059136","SEMIMAJOR_AXIS":"6925.364","TIME_SYSTEM":"UTC","MEAN_MOTION":"15.06394875","ARG_OF_PERICENTER":"71.3400","OBJECT_ID":"2021-012AB","REF_FRAME":"TEME","INCLINATION":"53.0553","CLASSIFICATION_TYPE":"U","OBJECT_TYPE":"PAYLOAD","BSTAR":"-0.00000129430000","RCS_SIZE":"LARGE","GP_ID":"209560028"},{"FILE":"3529060","TLE_LINE1":"1 47646U 21012AC  22216.17074213  .00000612  00000-0  60027-4 0  9999","PERIOD":"95.592","ELEMENT_SET_NO":"999","RA_OF_ASC_NODE":"143.4817","OBJECT_NAME":"STARLINK-2028","PERIAPSIS":"545.738","COUNTRY_CODE":"US","REV_AT_EPOCH":"8289","LAUNCH_DATE":"2021-02-16","ECCENTRICITY":"0.00021330","SITE":"AFETR","MEAN_ELEMENT_THEORY":"SGP4","TLE_LINE2":"2 47646  53.0556 143.4817 0002133  68.7917 291.3299 15.06399569 82893","MEAN_MOTION_DDOT":"0.0000000000000","CENTER_NAME":"EARTH","EPHEMERIS_TYPE":"0","DECAY_DATE":null,"APOAPSIS":"548.692","MEAN_MOTION_DOT":"0.00000612","NORAD_CAT_ID":"47646","MEAN_MOTION":"15.06399569","ARG_OF_PERICENTER":"68.7917","MEAN_ANOMALY":"291.3299","EPOCH":"2022-08-04T04:05:52.120032","TIME_SYSTEM":"UTC","SEMIMAJOR_AXIS":"6925.350","RCS_SIZE":"LARGE","GP_ID":"209558785","OBJECT_ID":"2021-012AC","REF_FRAME":"TEME","CLASSIFICATION_TYPE":"U","INCLINATION":"53.0556","OBJECT_TYPE":"PAYLOAD","BSTAR":"0.00006002700000"},{"ARG_OF_PERICENTER":"65.0167","MEAN_MOTION":"15.06397950","SEMIMAJOR_AXIS":"6925.355","TIME_SYSTEM":"UTC","MEAN_ANOMALY":"295.0983","EPOCH":"2022-08-04T05:46:01.123392","RCS_SIZE":"LARGE","GP_ID":"209558536","REF_FRAME":"TEME","OBJECT_ID":"2021-012AD","OBJECT_TYPE":"PAYLOAD","BSTAR":"0.00006062200000","CLASSIFICATION_TYPE":"U","INCLINATION":"53.0532","PERIOD":"95.592","FILE":"3529060","TLE_LINE1":"1 47647U 21012AD  22216.24029078  .00000622  00000-0  60622-4 0  9999","ELEMENT_SET_NO":"999","RA_OF_ASC_NODE":"207.9311","PERIAPSIS":"546.145","COUNTRY_CODE":"US","REV_AT_EPOCH":"8202","OBJECT_NAME":"STARLINK-2030","MEAN_ELEMENT_THEORY":"SGP4","TLE_LINE2":"2 47647  53.0532 207.9311 0001552  65.0167 295.0983 15.06397950 82022","LAUNCH_DATE":"2021-02-16","ECCENTRICITY":"0.00015520","SITE":"AFETR","MEAN_MOTION_DDOT":"0.0000000000000","DECAY_DATE":null,"APOAPSIS":"548.295","MEAN_MOTION_DOT":"0.00000622","CENTER_NAME":"EARTH","EPHEMERIS_TYPE":"0","NORAD_CAT_ID":"47647"},{"MEAN_ANOMALY":"292.4725","EPOCH":"2022-08-04T21:28:08.305248","TIME_SYSTEM":"UTC","SEMIMAJOR_AXIS":"6925.351","MEAN_MOTION":"15.06399091","ARG_OF_PERICENTER":"67.6460","INCLINATION":"53.0537","CLASSIFICATION_TYPE":"U","BSTAR":"0.00010803000000","OBJECT_TYPE":"PAYLOAD","OBJECT_ID":"2021-012AE","REF_FRAME":"TEME","GP_ID":"209589491","RCS_SIZE":"MEDIUM","OBJECT_NAME":"STARLINK-2031","REV_AT_EPOCH":"8240","COUNTRY_CODE":"US","PERIAPSIS":"545.938","RA_OF_ASC_NODE":"184.9928","ELEMENT_SET_NO":"999","TLE_LINE1":"1 47648U 21012AE  22216.89454057  .00001328  00000-0  10803-3 0  9999","FILE":"3529274","PERIOD":"95.592","NORAD_CAT_ID":"47648","EPHEMERIS_TYPE":"0","CENTER_NAME":"EARTH","MEAN_MOTION_DOT":"0.00001328","DECAY_DATE":null,"APOAPSIS":"548.495","MEAN_MOTION_DDOT":"0.0000000000000","SITE":"AFETR","LAUNCH_DATE":"2021-02-16","ECCENTRICITY":"0.00018460","TLE_LINE2":"2 47648  53.0537 184.9928 0001846  67.6460 292.4725 15.06399091 82401","MEAN_ELEMENT_THEORY":"SGP4"},{"TLE_LINE1":"1 47649U 21012AF  22216.89823652  .00000726  00000-0  67694-4 0  9993","FILE":"3529274","PERIOD":"95.593","ELEMENT_SET_NO":"999","RA_OF_ASC_NODE":"184.9824","OBJECT_NAME":"STARLINK-2032","REV_AT_EPOCH":"8240","COUNTRY_CODE":"US","PERIAPSIS":"545.853","SITE":"AFETR","ECCENTRICITY":"0.00020340","LAUNCH_DATE":"2021-02-16","TLE_LINE2":"2 47649  53.0543 184.9824 0002034  58.2293 301.8894 15.06384339 82405","MEAN_ELEMENT_THEORY":"SGP4","MEAN_MOTION_DDOT":"0.0000000000000","EPHEMERIS_TYPE":"0","CENTER_NAME":"EARTH","MEAN_MOTION_DOT":"0.00000726","APOAPSIS":"548.670","DECAY_DATE":null,"NORAD_CAT_ID":"47649","MEAN_MOTION":"15.06384339","ARG_OF_PERICENTER":"58.2293","MEAN_ANOMALY":"301.8894","EPOCH":"2022-08-04T21:33:27.635328","SEMIMAJOR_AXIS":"6925.397","TIME_SYSTEM":"UTC","GP_ID":"209588240","RCS_SIZE":"LARGE","OBJECT_ID":"2021-012AF","REF_FRAME":"TEME","CLASSIFICATION_TYPE":"U","INCLINATION":"53.0543","BSTAR":"0.00006769400000","OBJECT_TYPE":"PAYLOAD"},{"MEAN_MOTION":"15.06397011","ARG_OF_PERICENTER":"67.8997","MEAN_ANOMALY":"292.2205","EPOCH":"2022-08-04T06:52:22.549440","SEMIMAJOR_AXIS":"6925.358","TIME_SYSTEM":"UTC","GP_ID":"209558286","RCS_SIZE":"LARGE","CLASSIFICATION_TYPE":"U","INCLINATION":"53.0545","BSTAR":"-0.00001282700000","OBJECT_TYPE":"PAYLOAD","OBJECT_ID":"2021-012AG","REF_FRAME":"TEME","ELEMENT_SET_NO":"999","TLE_LINE1":"1 47650U 21012AG  22216.28637210 -.00000473  00000-0 -12827-4 0  9990","FILE":"3529060","PERIOD":"95.592","OBJECT_NAME":"STARLINK-2033","COUNTRY_CODE":"US","REV_AT_EPOCH":"8229","PERIAPSIS":"545.833","RA_OF_ASC_NODE":"187.7280","MEAN_MOTION_DDOT":"0.0000000000000","SITE":"AFETR","LAUNCH_DATE":"2021-02-16","ECCENTRICITY":"0.00020070","TLE_LINE2":"2 47650  53.0545 187.7280 0002007  67.8997 292.2205 15.06397011 82290","MEAN_ELEMENT_THEORY":"SGP4","NORAD_CAT_ID":"47650","EPHEMERIS_TYPE":"0","CENTER_NAME":"EARTH","MEAN_MOTION_DOT":"-0.00000473","APOAPSIS":"548.613","DECAY_DATE":null}];
